COSMOS 1933             
1 18958U 88020A   26047.10130968  .00004633  00000+0  22783-3 0  9996
2 18958  82.5111 272.2732 0002629 282.6239  77.4701 15.17790144 46956
SL-3 R/B                
1 19046U 88032B   26047.20232836  .00006234  00000+0  29355-3 0  9997
2 19046  97.5153  30.5393 0024630 312.0948  47.8192 15.19629985 48847
SL-16 R/B               
1 19120U 88039B   26047.27779180  .00000148  00000+0  92769-4 0  9990
2 19120  71.0142 113.8268 0021439   6.7496 353.3913 14.19613290955349
COSMOS 1953             
1 19210U 88050A   26046.82266487  .00011047  00000+0  40145-3 0  9994
2 19210  82.5098 180.2260 0011040 196.4682 163.6201 15.28088930 34446
SL-8 R/B                
1 19257U 88053B   26047.30265473  .00000242  00000+0  86879-4 0  9996
2 19257  74.0484 151.8851 0020727 334.9189  36.3966 14.38902614973524
COSMOS 1975             
1 19573U 88093A   26047.30884309  .00009696  00000+0  35650-3 0  9998
2 19573  82.5224 139.1371 0010456 241.9765 118.0417 15.27701175 16145
SL-14 R/B               
1 19574U 88093B   26047.10963221  .00000509  00000+0  55722-4 0  9995
2 19574  82.5278  62.3072 0022260 108.2863 314.0440 14.85630675997837
SL-16 R/B               
1 19650U 88102B   26046.79617689  .00000162  00000+0  10587-3 0  9993
2 19650  70.9989 197.5588 0012783  36.7851 323.4147 14.16151350923790
INTERCOSMOS 24          
1 20261U 89080A   26047.27758294  .00000564  00000+0  16455-3 0  9997
2 20261  82.6055 118.3434 1187561 342.5562  13.7796 12.59526260664107
SL-14 R/B               
1 20262U 89080C   26046.79069829  .00000521  00000+0  15698-3 0  9994
2 20262  82.5955 187.2425 1229624 234.8164 113.1677 12.50465097657419
DELTA 1 R/B             
1 20323U 89089B   26047.16908107  .00000381  00000+0  10301-3 0  9994
2 20323  97.0721 258.0284 0068805 189.5122 170.4779 14.50645006892614
ARIANE 40 R/B           
1 20443U 90005H   26047.13219670  .00000292  00000+0  10644-3 0  9995
2 20443  98.3132 108.4307 0008876 268.7574  91.2597 14.39855833889706
